OBJECT_NAME,OBJECT_ID,EPOCH,MEAN_MOTION,ECCENTRICITY,INCLINATION,RA_OF_ASC_NODE,ARG_OF_PERICENTER,MEAN_ANOMALY,EPHEMERIS_TYPE,CLASSIFICATION_TYPE,NORAD_CAT_ID,ELEMENT_SET_NO,REV_AT_EPOCH,BSTAR,MEAN_MOTION_DOT,MEAN_MOTION_DDOT
SIRION PATHFINDER-2,2018-099B,2026-06-27T16:28:18.481728,15.14637514,.00071587,97.4250,227.4940,259.9312,100.1112,0,U,43759,999,41421,.2723972E-3,.4972E-4,0
CORVUS BC4,2018-099K,2026-06-27T21:44:05.748576,15.12577306,.00071225,97.4062,221.5720,334.9531,25.1353,0,U,43767,999,41402,.229557E-3,.3943E-4,0
M2 PATHFINDER,2020-037E,2026-06-27T11:41:53.882880,15.04714303,.00125925,97.8135,9.8342,116.4905,243.7614,0,U,45727,999,32704,.22233262E-3,.3072E-4,0
NETSAT-4,2020-068U,2026-06-27T18:04:42.260160,15.44206931,.0003165,97.8598,187.8448,279.7774,80.3115,0,U,46504,999,31740,.3850065E-3,.17594E-3,0
NETSAT-3,2020-068V,2026-06-27T23:05:29.764320,15.43044201,.00029722,97.8648,186.2738,308.0973,52.0005,0,U,46505,999,31734,.42291216E-3,.18594E-3,0
NETSAT-1,2020-068W,2026-06-27T21:26:14.148384,15.34880266,.00036791,97.8741,180.4033,356.3759,3.7455,0,U,46506,999,31694,.36634577E-3,.12312E-3,0
NETSAT-2,2020-068X,2026-06-27T23:20:26.728512,15.46452432,.00018337,97.8609,188.0166,343.5545,16.5643,0,U,46507,999,31740,.45572708E-3,.22515E-3,0
GREENCUBE (IO-117),2022-080E,2026-06-27T18:25:18.466176,6.42583239,.00089839,70.1441,294.5656,287.3296,72.6381,0,U,53109,999,9274,0,-.3E-7,0
SITRO-AIS 5 (KATYS),2023-091L,2026-06-27T22:18:47.689632,15.29696691,.00123007,97.5063,242.9322,70.0903,290.1661,0,U,57176,999,16598,.44536957E-3,.12772E-3,0
SITRO-AIS 6 (CHIRKIN),2023-091AC,2026-06-27T22:24:20.642400,15.26133917,.00127297,97.5069,241.9979,73.2681,286.9953,0,U,57192,999,16592,.40082792E-3,.10301E-3,0
SITRO-AIS 8 (ANOKHIN),2023-091AD,2026-06-27T22:16:04.438560,15.32419646,.00112329,97.5059,244.5629,66.4354,293.8066,0,U,57193,999,16609,.47477686E-3,.14823E-3,0
SITRO-AIS 7 (FARTUSHNIY),2023-091AE,2026-06-27T22:32:03.710976,15.25817246,.00126596,97.5066,241.8227,74.1818,286.0815,0,U,57194,999,16591,.38774344E-3,.9867E-4,0
SITRO-AIS 10 (BURDAEV),2023-091AK,2026-06-27T21:55:55.658496,15.39004821,.00066013,97.5086,249.7144,46.8482,313.3314,0,U,57199,999,16641,.47877524E-3,.1844E-3,0
SITRO-AIS 9 (SHCHUKIN),2023-091AM,2026-06-27T22:38:55.278240,15.38508053,.00068661,97.5082,249.4663,46.9496,313.2322,0,U,57201,999,16640,.52918357E-3,.20068E-3,0
SITRO-AIS 12 (SMIRENNIY),2023-091AQ,2026-06-27T22:22:27.888672,15.38799722,.00063605,97.5096,249.9286,41.5099,318.6628,0,U,57204,999,16642,.49787273E-3,.19051E-3,0
SITRO-AIS 11 (SHEFFER),2023-091AU,2026-06-27T22:37:28.880832,15.39232143,.00062454,97.5094,250.1927,41.3509,318.8208,0,U,57208,999,16644,.52624401E-3,.20432E-3,0
SITRO-AIS 25,2024-039R,2026-06-27T23:05:03.737184,14.93561655,.01425469,95.3906,242.4968,290.6270,67.9717,0,U,59066,999,12633,.1726419E-3,.2186E-4,0
SITRO-AIS 26,2024-039S,2026-06-27T23:09:09.804384,14.93356068,.01428936,95.3907,242.3941,291.2171,67.3841,0,U,59067,999,12632,.18117412E-3,.2285E-4,0
SITRO-AIS 27,2024-039T,2026-06-27T22:21:57.885408,14.93779713,.01417943,95.3913,242.6483,289.9127,68.6869,0,U,59068,999,12634,.22206168E-3,.2833E-4,0
SITRO-AIS 28,2024-039U,2026-06-27T23:25:35.600736,14.93810944,.0141793,95.3910,242.7264,289.5737,69.0226,0,U,59071,999,12635,.20769455E-3,.265E-4,0
GRBBETA,2024-128C,2026-06-27T23:18:57.517056,15.06701390,.00392571,61.9878,178.4272,136.8811,223.5368,0,U,60237,999,10789,.22328137E-3,.317E-4,0
OOV-CUBE (TUBSAT-30),2024-128F,2026-06-27T12:02:51.245664,15.02808571,.00433476,61.9924,189.6042,136.0616,224.3935,0,U,60240,999,10766,.14006766E-3,.1706E-4,0
ROBUSTA-3A (MEDITERRANEE),2024-128J,2026-06-27T23:35:01.606272,15.11773939,.00399889,61.9840,170.0640,130.4067,230.0530,0,U,60243,999,10805,.32447153E-3,.5445E-4,0
LASARSAT,2024-247Q,2026-06-27T22:56:34.266624,15.46981123,.0007068,44.9721,201.6735,37.6087,322.5296,0,U,62391,999,8498,.56627986E-3,.28991E-3,0
CROCUBE,2024-247T,2026-06-27T08:38:18.755520,15.48916422,.00069657,44.9690,202.1892,37.4943,322.6433,0,U,62394,999,8492,.68076562E-3,.37427E-3,0
FORESAIL-1 PRIME,2025-276DS,2026-06-27T03:25:56.907264,15.18788261,.00038901,97.4203,251.2317,83.4614,276.7063,0,U,66778,999,3191,.26439553E-3,.5433E-4,0
KNACKSAT-2,1998-067XZ,2026-06-27T11:15:45.617472,15.60876135,.00086243,51.6278,242.7251,261.3976,98.6041,0,U,67683,999,2188,.57112017E-3,.48531E-3,0
